ION SCV-004             
1 50993U 22002K   26068.68892644  .00006538  00000+0  23198-3 0  9998
2 50993  97.2961 128.2294 0007216   1.6783 358.4480 15.29369331230088
STARLINK-33743          
1 63440U 25069H   26068.43289675  .00011432  00000+0  39775-3 0  9999
2 63440  53.1579 143.7974 0001132  70.0219 290.0903 15.30179898 53259
