[{"OBJECT_NAME":"ION SCV-004","OBJECT_ID":"2022-002K","EPOCH":"2026-03-09T16:32:03.244416","MEAN_MOTION":15.29369331,"ECCENTRICITY":0.00072157,"INCLINATION":97.2961,"RA_OF_ASC_NODE":128.2294,"ARG_OF_PERICENTER":1.6783,"MEAN_ANOMALY":358.448,"EPHEMERIS_TYPE":0,"CLASSIFICATION_TYPE":"U","NORAD_CAT_ID":50993,"ELEMENT_SET_NO":999,"REV_AT_EPOCH":23008,"BSTAR":0.00023198467,"MEAN_MOTION_DOT":6.538e-5,"MEAN_MOTION_DDOT":0},{"OBJECT_NAME":"STARLINK-33743","OBJECT_ID":"2025-069H","EPOCH":"2026-03-09T10:23:22.279200","MEAN_MOTION":15.30179898,"ECCENTRICITY":0.00011326,"INCLINATION":53.1579,"RA_OF_ASC_NODE":143.7974,"ARG_OF_PERICENTER":70.0219,"MEAN_ANOMALY":290.0903,"EPHEMERIS_TYPE":0,"CLASSIFICATION_TYPE":"U","NORAD_CAT_ID":63440,"ELEMENT_SET_NO":999,"REV_AT_EPOCH":5325,"BSTAR":0.00039775138,"MEAN_MOTION_DOT":0.00011432,"MEAN_MOTION_DDOT":0}]
